{"type": "FeatureCollection", "features": [{"type": "Feature", "properties": {"norad_id": 66412, "name": "HULIANWANG DIGUI 13A", "group": "last-30-days", "lat": 49.98619696084014, "lon": 2.625805432582318, "alt_km": 817.888988589656, "timestamp": "2025-12-10T04:57:28.364621+00:00", "meta": {"OBJECT_NAME": "HULIANWANG DIGUI 13A", "OBJECT_ID": "2025-258A", "EPOCH": "2025-12-08T08:38:10.619232", "MEAN_MOTION": 14.20432847, "ECCENTRICITY": 0.00076585, "INCLINATION": 50.0042, "RA_OF_ASC_NODE": 280.4566, "ARG_OF_PERICENTER": 343.0746, "MEAN_ANOMALY": 16.9909, "EPHEMERIS_TYPE": 0, "CLASSIFICATION_TYPE": "U", "NORAD_CAT_ID": 66412, "ELEMENT_SET_NO": 999, "REV_AT_EPOCH": 403, "BSTAR": 0.00033138446, "MEAN_MOTION_DOT": 5.57e-06, "MEAN_MOTION_DDOT": 0}, "tle": {"line1": "1 66412U 25258A   25342.35984513  .00000557  00000+0  33138-3 0  9992", "line2": "2 66412  50.0042 280.4566 0007658 343.0746  16.9909 14.20432847  4032"}}, "geometry": {"type": "Point", "coordinates": [2.625805432582318, 49.98619696084014]}}, {"type": "Feature", "properties": {"norad_id": 66413, "name": "HULIANWANG DIGUI 13B", "group": "last-30-days", "lat": 27.5595141377992, "lon": -61.2061589199108, "alt_km": 820.956905496826, "timestamp": "2025-12-10T04:57:28.364672+00:00", "meta": {"OBJECT_NAME": "HULIANWANG DIGUI 13B", "OBJECT_ID": "2025-258B", "EPOCH": "2025-12-08T20:40:52.882752", "MEAN_MOTION": 14.19495379, "ECCENTRICITY": 0.00049258, "INCLINATION": 49.9968, "RA_OF_ASC_NODE": 278.4258, "ARG_OF_PERICENTER": 347.5577, "MEAN_ANOMALY": 12.5212, "EPHEMERIS_TYPE": 0, "CLASSIFICATION_TYPE": "U", "NORAD_CAT_ID": 66413, "ELEMENT_SET_NO": 999, "REV_AT_EPOCH": 410, "BSTAR": 0.00048755309, "MEAN_MOTION_DOT": 8.76e-06, "MEAN_MOTION_DDOT": 0}, "tle": {"line1": "1 66413U 25258B   25342.86172318  .00000876  00000+0  48755-3 0  9996", "line2": "2 66413  49.9968 278.4258 0004925 347.5577  12.5212 14.19495379  4101"}}, "geometry": {"type": "Point", "coordinates": [-61.2061589199108, 27.5595141377992]}}, {"type": "Feature", "properties": {"norad_id": 66414, "name": "HULIANWANG DIGUI 13C", "group": "last-30-days", "lat": 38.620332775894354, "lon": -45.09735073400005, "alt_km": 821.3229560278432, "timestamp": "2025-12-10T04:57:28.364692+00:00", "meta": {"OBJECT_NAME": "HULIANWANG DIGUI 13C", "OBJECT_ID": "2025-258C", "EPOCH": "2025-12-09T03:21:13.066848", "MEAN_MOTION": 14.19246085, "ECCENTRICITY": 0.00047063, "INCLINATION": 50.0081, "RA_OF_ASC_NODE": 277.2503, "ARG_OF_PERICENTER": 342.5024, "MEAN_ANOMALY": 17.5724, "EPHEMERIS_TYPE": 0, "CLASSIFICATION_TYPE": "U", "NORAD_CAT_ID": 66414, "ELEMENT_SET_NO": 999, "REV_AT_EPOCH": 414, "BSTAR": 0.00041183983, "MEAN_MOTION_DOT": 7.11e-06, "MEAN_MOTION_DDOT": 0}, "tle": {"line1": "1 66414U 25258C   25343.13973457  .00000711  00000+0  41184-3 0  9998", "line2": "2 66414  50.0081 277.2503 0004706 342.5024  17.5724 14.19246085  4145"}}, "geometry": {"type": "Point", "coordinates": [-45.09735073400005, 38.620332775894354]}}, {"type": "Feature", "properties": {"norad_id": 66415, "name": "HULIANWANG DIGUI 13D", "group": "last-30-days", "lat": 48.728786541868296, "lon": 19.651267211774773, "alt_km": 817.6177379640512, "timestamp": "2025-12-10T04:57:28.364706+00:00", "meta": {"OBJECT_NAME": "HULIANWANG DIGUI 13D", "OBJECT_ID": "2025-258D", "EPOCH": "2025-12-08T18:43:14.477088", "MEAN_MOTION": 14.20669566, "ECCENTRICITY": 0.00073015, "INCLINATION": 50.0039, "RA_OF_ASC_NODE": 278.6799, "ARG_OF_PERICENTER": 351.1938, "MEAN_ANOMALY": 8.8844, "EPHEMERIS_TYPE": 0, "CLASSIFICATION_TYPE": "U", "NORAD_CAT_ID": 66415, "ELEMENT_SET_NO": 999, "REV_AT_EPOCH": 409, "BSTAR": 0.00031109029, "MEAN_MOTION_DOT": 5.16e-06, "MEAN_MOTION_DDOT": 0}, "tle": {"line1": "1 66415U 25258D   25342.78002867  .00000516  00000+0  31109-3 0  9996", "line2": "2 66415  50.0039 278.6799 0007301 351.1938   8.8844 14.20669566  4090"}}, "geometry": {"type": "Point", "coordinates": [19.651267211774773, 48.728786541868296]}}, {"type": "Feature", "properties": {"norad_id": 66416, "name": "HULIANWANG DIGUI 13E", "group": "last-30-days", "lat": 45.026554676701785, "lon": -30.06622444578095, "alt_km": 818.5606629861877, "timestamp": "2025-12-10T04:57:28.364718+00:00", "meta": {"OBJECT_NAME": "HULIANWANG DIGUI 13E", "OBJECT_ID": "2025-258E", "EPOCH": "2025-12-08T20:32:41.838720", "MEAN_MOTION": 14.19737012, "ECCENTRICITY": 0.00054325, "INCLINATION": 50.0065, "RA_OF_ASC_NODE": 278.4193, "ARG_OF_PERICENTER": 353.4979, "MEAN_ANOMALY": 6.5861, "EPHEMERIS_TYPE": 0, "CLASSIFICATION_TYPE": "U", "NORAD_CAT_ID": 66416, "ELEMENT_SET_NO": 999, "REV_AT_EPOCH": 410, "BSTAR": 0.00052022301, "MEAN_MOTION_DOT": 9.5e-06, "MEAN_MOTION_DDOT": 0}, "tle": {"line1": "1 66416U 25258E   25342.85603980  .00000950  00000+0  52022-3 0  9997", "line2": "2 66416  50.0065 278.4193 0005432 353.4979   6.5861 14.19737012  4105"}}, "geometry": {"type": "Point", "coordinates": [-30.06622444578095, 45.026554676701785]}}, {"type": "Feature", "properties": {"norad_id": 66417, "name": "HULIANWANG DIGUI 13F", "group": "last-30-days", "lat": 48.43808032928751, "lon": -16.02536460254547, "alt_km": 818.3185456177634, "timestamp": "2025-12-10T04:57:28.364730+00:00", "meta": {"OBJECT_NAME": "HULIANWANG DIGUI 13F", "OBJECT_ID": "2025-258F", "EPOCH": "2025-12-08T20:30:02.663136", "MEAN_MOTION": 14.19898124, "ECCENTRICITY": 0.00049712, "INCLINATION": 50.0014, "RA_OF_ASC_NODE": 278.3846, "ARG_OF_PERICENTER": 352.5523, "MEAN_ANOMALY": 7.5313, "EPHEMERIS_TYPE": 0, "CLASSIFICATION_TYPE": "U", "NORAD_CAT_ID": 66417, "ELEMENT_SET_NO": 999, "REV_AT_EPOCH": 410, "BSTAR": 0.0004539907, "MEAN_MOTION_DOT": 8.12e-06, "MEAN_MOTION_DDOT": 0}, "tle": {"line1": "1 66417U 25258F   25342.85419749  .00000812  00000+0  45399-3 0  9992", "line2": "2 66417  50.0014 278.3846 0004971 352.5523   7.5313 14.19898124  4101"}}, "geometry": {"type": "Point", "coordinates": [-16.02536460254547, 48.43808032928751]}}, {"type": "Feature", "properties": {"norad_id": 66418, "name": "HULIANWANG DIGUI 13G", "group": "last-30-days", "lat": 46.445566260360806, "lon": 30.663788024211584, "alt_km": 819.0084392395402, "timestamp": "2025-12-10T04:57:28.364741+00:00", "meta": {"OBJECT_NAME": "HULIANWANG DIGUI 13G", "OBJECT_ID": "2025-258G", "EPOCH": "2025-12-08T20:22:07.229856", "MEAN_MOTION": 14.20510798, "ECCENTRICITY": 0.00055793, "INCLINATION": 50.0031, "RA_OF_ASC_NODE": 278.3586, "ARG_OF_PERICENTER": 346.1381, "MEAN_ANOMALY": 13.9377, "EPHEMERIS_TYPE": 0, "CLASSIFICATION_TYPE": "U", "NORAD_CAT_ID": 66418, "ELEMENT_SET_NO": 999, "REV_AT_EPOCH": 410, "BSTAR": 0.00039264944, "MEAN_MOTION_DOT": 6.91e-06, "MEAN_MOTION_DDOT": 0}, "tle": {"line1": "1 66418U 25258G   25342.84869479  .00000691  00000+0  39265-3 0  9991", "line2": "2 66418  50.0031 278.3586 0005579 346.1381  13.9377 14.20510798  4109"}}, "geometry": {"type": "Point", "coordinates": [30.663788024211584, 46.445566260360806]}}, {"type": "Feature", "properties": {"norad_id": 66419, "name": "HULIANWANG DIGUI 13H", "group": "last-30-days", "lat": 31.204694037702403, "lon": -88.51327911470055, "alt_km": 441.8670537815897, "timestamp": "2025-12-10T04:57:28.364752+00:00", "meta": {"OBJECT_NAME": "HULIANWANG DIGUI 13H", "OBJECT_ID": "2025-258H", "EPOCH": "2025-12-08T14:58:00.814656", "MEAN_MOTION": 15.39596954, "ECCENTRICITY": 0.00012505, "INCLINATION": 53.1596, "RA_OF_ASC_NODE": 125.9585, "ARG_OF_PERICENTER": 98.9072, "MEAN_ANOMALY": 261.2074, "EPHEMERIS_TYPE": 0, "CLASSIFICATION_TYPE": "U", "NORAD_CAT_ID": 66419, "ELEMENT_SET_NO": 999, "REV_AT_EPOCH": 804, "BSTAR": 0.0024249346, "MEAN_MOTION_DOT": 0.00097774, "MEAN_MOTION_DDOT": 0}, "tle": {"line1": "1 66419U 25258H   25342.62362054  .00097774  00000+0  24249-2 0  9998", "line2": "2 66419  53.1596 125.9585 0001250  98.9072 261.2074 15.39596954  8045"}}, "geometry": {"type": "Point", "coordinates": [-88.51327911470055, 31.204694037702403]}}, {"type": "Feature", "properties": {"norad_id": 66420, "name": "HULIANWANG DIGUI 13J", "group": "last-30-days", "lat": 37.02634936017039, "lon": 53.350273040225666, "alt_km": 819.4849863688978, "timestamp": "2025-12-10T04:57:28.364766+00:00", "meta": {"OBJECT_NAME": "HULIANWANG DIGUI 13J", "OBJECT_ID": "2025-258J", "EPOCH": "2025-12-08T20:17:06.442944", "MEAN_MOTION": 14.20810839, "ECCENTRICITY": 0.00037732, "INCLINATION": 50.0024, "RA_OF_ASC_NODE": 278.346, "ARG_OF_PERICENTER": 347.1433, "MEAN_ANOMALY": 12.9382, "EPHEMERIS_TYPE": 0, "CLASSIFICATION_TYPE": "U", "NORAD_CAT_ID": 66420, "ELEMENT_SET_NO": 999, "REV_AT_EPOCH": 409, "BSTAR": 0.00037258505, "MEAN_MOTION_DOT": 6.52e-06, "MEAN_MOTION_DDOT": 0}, "tle": {"line1": "1 66420U 25258J   25342.84521346  .00000652  00000+0  37259-3 0  9990", "line2": "2 66420  50.0024 278.3460 0003773 347.1433  12.9382 14.20810839  4090"}}, "geometry": {"type": "Point", "coordinates": [53.350273040225666, 37.02634936017039]}}, {"type": "Feature", "properties": {"norad_id": 66421, "name": "CZ-12 R/B", "group": "last-30-days", "lat": -48.9890859662653, "lon": 163.88273810393363, "alt_km": 711.9550245932924, "timestamp": "2025-12-10T04:57:28.364778+00:00", "meta": {"OBJECT_NAME": "CZ-12 R/B", "OBJECT_ID": "2025-258K", "EPOCH": "2025-12-09T12:47:21.717600", "MEAN_MOTION": 14.42322755, "ECCENTRICITY": 0.00645356, "INCLINATION": 49.9958, "RA_OF_ASC_NODE": 271.8629, "ARG_OF_PERICENTER": 237.8784, "MEAN_ANOMALY": 121.5862, "EPHEMERIS_TYPE": 0, "CLASSIFICATION_TYPE": "U", "NORAD_CAT_ID": 66421, "ELEMENT_SET_NO": 999, "REV_AT_EPOCH": 426, "BSTAR": 0.00015068133, "MEAN_MOTION_DOT": 3.43e-06, "MEAN_MOTION_DDOT": 0}, "tle": {"line1": "1 66421U 25258K   25343.53289025  .00000343  00000+0  15068-3 0  9994", "line2": "2 66421  49.9958 271.8629 0064535 237.8784 121.5862 14.42322755  4264"}}, "geometry": {"type": "Point", "coordinates": [163.88273810393363, -48.9890859662653]}}]}